NORAD_CAT_ID,OBJECT_NAME,OBJECT_TYPE,EPOCH,MEAN_MOTION,ECCENTRICITY,INCLINATION,RA_OF_ASC_NODE,ARG_OF_PERICENTER,MEAN_ANOMALY,BSTAR,MEAN_MOTION_DOT,MEAN_MOTION_DDOT,TLE_LINE0,TLE_LINE1,TLE_LINE2,SEMIMAJOR_AXIS,PERIOD,APOGEE,PERIGEE,DECAYED
52100.0,STARLINK-3702,PAYLOAD,2023-01-25 19:07:13,15.08849562,0.000165,53.2148,161.8236,81.3816,278.7363,5.1283e-05,5.28e-06,0.0,0 STARLINK-3702,1 52100U 22029N   23025.79668605  .00000528  00000-0  51283-4 0  9990,2 52100  53.2148 161.8236 0001650  81.3816 278.7363 15.08849562 48724,6917.851,95.437,540.8580000000001,538.575,0.0
52100.0,STARLINK-3702,PAYLOAD,2023-01-26 14:11:51,15.08845419,0.0001612,53.2155,158.2519,91.407,268.7107,3.9259e-05,3.37e-06,0.0,0 STARLINK-3702,1 52100U 22029N   23026.59157050  .00000337  00000-0  39259-4 0  9993,2 52100  53.2155 158.2519 0001612  91.4070 268.7107 15.08845419 48843,6917.8640000000005,95.437,540.844,538.614,0.0
52100.0,STARLINK-3702,PAYLOAD,2023-01-27 14:02:39,15.08835371,0.0001641,53.2163,153.7951,98.0171,262.1007,2.4359e-05,1e-06,0.0,0 STARLINK-3702,1 52100U 22029N   23027.58517931  .00000100  00000-0  24359-4 0  9994,2 52100  53.2163 153.7951 0001641  98.0171 262.1007 15.08835371 48998,6917.895,95.438,540.895,538.624,0.0
52100.0,STARLINK-3702,PAYLOAD,2023-01-27 17:13:25,15.08839905,0.0001459,53.215,153.1987,87.5471,272.5688,6.446e-05,7.38e-06,0.0,0 STARLINK-3702,1 52100U 22029N   23027.71765571  .00000738  00000-0  64460-4 0  9998,2 52100  53.2150 153.1987 0001459  87.5471 272.5688 15.08839905 49011,6917.880999999999,95.438,540.755,538.736,0.0
52100.0,STARLINK-3702,PAYLOAD,2023-01-28 13:53:26,15.08837813,0.0001457,53.2161,149.3325,76.8888,283.2266,1.6866e-05,-2e-07,0.0,0 STARLINK-3702,1 52100U 22029N   23028.57878028 -.00000020  00000-0  16866-4 0  9997,2 52100  53.2161 149.3325 0001457  76.8888 283.2266 15.08837813 49148,6917.887,95.438,540.76,538.744,0.0
52100.0,STARLINK-3702,PAYLOAD,2023-01-28 15:28:49,15.08840294,0.0001484,53.216,149.0349,78.9995,281.1164,2.9338e-05,1.79e-06,0.0,0 STARLINK-3702,1 52100U 22029N   23028.64501852  .00000179  00000-0  29338-4 0  9995,2 52100  53.2160 149.0349 0001484  78.9995 281.1164 15.08840294 49154,6917.879,95.438,540.771,538.718,0.0
52100.0,STARLINK-3702,PAYLOAD,2023-01-29 07:22:41,15.08830432,0.0001467,53.2155,146.0667,62.6268,297.4874,7.5162e-05,9.08e-06,0.0,0 STARLINK-3702,1 52100U 22029N   23029.30742471  .00000908  00000-0  75162-4 0  9999,2 52100  53.2155 146.0667 0001467  62.6268 297.4874 15.08830432 49254,6917.91,95.438,540.789,538.76,0.0
52100.0,STARLINK-3702,PAYLOAD,2023-01-29 15:19:37,15.08833404,0.0001322,53.2147,144.5769,71.0976,289.0159,4.5197e-05,4.31e-06,0.0,0 STARLINK-3702,1 52100U 22029N   23029.63862471  .00000431  00000-0  45197-4 0  9994,2 52100  53.2147 144.5769 0001322  71.0976 289.0159 15.08833404 49302,6917.901,95.438,540.68,538.851,0.0
52100.0,STARLINK-3702,PAYLOAD,2023-01-30 07:13:28,15.08842614,0.0001186,53.2148,141.6031,85.9266,274.1862,1.756e-05,-8e-08,0.0,0 STARLINK-3702,1 52100U 22029N   23030.30102161 -.00000008  00000-0  17560-4 0  9997,2 52100  53.2148 141.6031 0001186  85.9266 274.1862 15.08842614 49407,6917.872,95.437,540.558,538.917,0.0
52100.0,STARLINK-3702,PAYLOAD,2023-01-30 15:10:23,15.08846899,0.0001202,53.2144,140.1165,85.9521,274.1608,4.7751e-05,4.72e-06,0.0,0 STARLINK-3702,1 52100U 22029N   23030.63221704  .00000472  00000-0  47751-4 0  9997,2 52100  53.2144 140.1165 0001202  85.9521 274.1608 15.08846899 49450,6917.859,95.437,540.556,538.893,0.0
52100.0,STARLINK-3702,PAYLOAD,2023-01-31 11:50:25,15.08821517,0.0001104,53.2142,136.2515,76.7373,283.3742,0.00014503,2.02e-05,0.0,0 STARLINK-3702,1 52100U 22029N   23031.49335131  .00002020  00000-0  14503-3 0  9991,2 52100  53.2142 136.2515 0001104  76.7373 283.3742 15.08821517 49582,6917.937,95.439,540.566,539.038,0.0
52100.0,STARLINK-3702,PAYLOAD,2023-01-31 16:36:34,15.08831603,0.0001333,53.214,135.3588,77.2165,282.8976,5.3003e-05,5.56e-06,0.0,0 STARLINK-3702,1 52100U 22029N   23031.69206805  .00000556  00000-0  53003-4 0  9999,2 52100  53.2140 135.3588 0001333  77.2165 282.8976 15.08831603 49613,6917.906,95.438,540.693,538.849,0.0
52100.0,STARLINK-3702,PAYLOAD,2023-02-01 06:55:02,15.08844227,0.000122,53.2139,132.6819,87.3289,272.7842,1.8014e-05,-1e-08,0.0,0 STARLINK-3702,1 52100U 22029N   23032.28822059 -.00000001  00000-0  18014-4 0  9999,2 52100  53.2139 132.6819 0001220  87.3289 272.7842 15.08844227 49708,6917.867,95.437,540.576,538.888,0.0
52100.0,STARLINK-3702,PAYLOAD,2023-02-01 13:16:35,15.08801138,0.000137,53.214,131.4919,95.9045,264.2104,0.00069179,0.00010727,0.0,0 STARLINK-3702,1 52100U 22029N   23032.55318596  .00010727  00000-0  69179-3 0  9997,2 52100  53.2140 131.4919 0001370  95.9045 264.2104 15.08801138 49744,6917.999,95.44,540.812,538.916,0.0
52100.0,STARLINK-3702,PAYLOAD,2023-02-01 14:51:57,15.08850927,0.000117,53.2139,131.1938,102.6374,257.4749,7.0797e-05,8.39e-06,0.0,0 STARLINK-3702,1 52100U 22029N   23032.61941246  .00000839  00000-0  70797-4 0  9990,2 52100  53.2139 131.1938 0001170 102.6374 257.4749 15.08850927 49759,6917.847,95.437,540.521,538.903,0.0
52100.0,STARLINK-3702,PAYLOAD,2023-02-02 13:07:22,15.08836357,0.0001114,53.2164,127.0273,115.2183,244.8924,3.8751e-05,3.29e-06,0.0,0 STARLINK-3702,1 52100U 22029N   23033.54678257  .00000329  00000-0  38751-4 0  9990,2 52100  53.2164 127.0273 0001114 115.2183 244.8924 15.08836357 49890,6917.892,95.438,540.527,538.986,0.0
52100.0,STARLINK-3702,PAYLOAD,2023-02-02 22:39:41,15.08831686,0.0001128,53.2165,125.2432,106.5824,253.5292,-4.9603e-06,-3.67e-06,0.0,0 STARLINK-3702,1 52100U 22029N   23033.94422834 -.00000367  00000-0 -49603-5 0  9995,2 52100  53.2165 125.2432 0001128 106.5824 253.5292 15.08831686 49950,6917.906,95.438,540.551,538.99,0.0
52100.0,STARLINK-3702,PAYLOAD,2023-02-03 09:47:23,15.08834929,0.0001308,53.2156,123.1626,112.495,247.6181,-0.00010199,-1.91e-05,0.0,0 STARLINK-3702,1 52100U 22029N   23034.40791197 -.00001910  00000-0 -10199-3 0  9999,2 52100  53.2156 123.1626 0001308 112.4950 247.6181 15.08834929 50022,6917.896,95.438,540.666,538.856,0.0
52100.0,STARLINK-3702,PAYLOAD,2023-02-03 14:33:32,15.08836583,0.0001294,53.215,122.271,108.5998,251.5135,-7.836e-05,-1.535e-05,0.0,0 STARLINK-3702,1 52100U 22029N   23034.60663086 -.00001535  00000-0 -78360-4 0  9994,2 52100  53.2150 122.2710 0001294 108.5998 251.5135 15.08836583 50056,6917.891,95.438,540.651,538.861,0.0
52100.0,STARLINK-3702,PAYLOAD,2023-02-04 14:24:18,15.08854529,0.0001179,53.2147,117.8127,118.213,241.8981,8.3217e-05,1.037e-05,0.0,0 STARLINK-3702,1 52100U 22029N   23035.60021591  .00001037  00000-0  83217-4 0  9996,2 52100  53.2147 117.8127 0001179 118.2130 241.8981 15.08854529 50200,6917.836,95.437,540.517,538.885,0.0
52100.0,STARLINK-3702,PAYLOAD,2023-02-04 22:21:14,15.08844859,0.000106,53.2163,116.3257,104.2119,255.8991,3.1202e-05,2.09e-06,0.0,0 STARLINK-3702,1 52100U 22029N   23035.93142311  .00000209  00000-0  31202-4 0  9993,2 52100  53.2163 116.3257 0001060 104.2119 255.8991 15.08844859 50253,6917.866,95.437,540.464,538.997,0.0
52100.0,STARLINK-3702,PAYLOAD,2023-02-05 04:42:48,15.08831827,0.0001381,53.2146,115.1361,93.6113,266.5038,0.00011627,1.563e-05,0.0,0 STARLINK-3702,1 52100U 22029N   23036.19639221  .00001563  00000-0  11627-3 0  9995,2 52100  53.2146 115.1361 0001381  93.6113 266.5038 15.08831827 50294,6917.905,95.438,540.726,538.815,0.0
52100.0,STARLINK-3702,PAYLOAD,2023-02-05 12:39:43,15.08838803,0.0001198,53.2144,113.6499,92.1751,267.9378,6.4445e-05,7.38e-06,0.0,0 STARLINK-3702,1 52100U 22029N   23036.52759001  .00000738  00000-0  64445-4 0  9991,2 52100  53.2144 113.6499 0001198  92.1751 267.9378 15.08838803 50344,6917.884,95.438,540.578,538.92,0.0
52100.0,STARLINK-3702,PAYLOAD,2023-02-05 22:12:02,15.08837008,0.0001497,53.2146,111.8646,84.3991,275.7172,2.314e-05,8e-07,0.0,0 STARLINK-3702,1 52100U 22029N   23036.92503387  .00000080  00000-0  23140-4 0  9996,2 52100  53.2146 111.8646 0001497  84.3991 275.7172 15.08837008 50403,6917.89,95.438,540.79,538.719,0.0
52100.0,STARLINK-3702,PAYLOAD,2023-02-06 10:55:07,15.08849025,0.0001275,53.2144,109.4875,78.9975,281.116,-2.5191e-05,-6.89e-06,0.0,0 STARLINK-3702,1 52100U 22029N   23037.45494745 -.00000689  00000-0 -25191-4 0  9997,2 52100  53.2144 109.4875 0001275  78.9975 281.1160 15.08849025 50481,6917.853,95.437,540.6,538.836,0.0
52100.0,STARLINK-3702,PAYLOAD,2023-02-06 14:05:53,15.08856801,0.0001278,53.2144,108.8927,80.0413,280.0723,4.4507e-05,4.21e-06,0.0,0 STARLINK-3702,1 52100U 22029N   23037.58741976  .00000421  00000-0  44507-4 0  9996,2 52100  53.2144 108.8927 0001278  80.0413 280.0723 15.08856801 50502,6917.829,95.436,540.578,538.81,0.0
52100.0,STARLINK-3702,PAYLOAD,2023-02-07 10:45:53,15.08854148,0.0001484,53.2141,105.0269,80.8183,279.2977,0.00018005,2.58e-05,0.0,0 STARLINK-3702,1 52100U 22029N   23038.44853524  .00002580  00000-0  18005-3 0  9996,2 52100  53.2141 105.0269 0001484  80.8183 279.2977 15.08854148 50635,6917.837,95.437,540.729,538.676,0.0
52100.0,STARLINK-3702,PAYLOAD,2023-02-07 13:56:38,15.08866534,0.0001364,53.215,104.4307,89.4959,270.619,0.00025678,3.804e-05,0.0,0 STARLINK-3702,1 52100U 22029N   23038.58100328  .00003804  00000-0  25678-3 0  9992,2 52100  53.2150 104.4307 0001364  89.4959 270.6190 15.08866534 50650,6917.799,95.436,540.608,538.721,0.0
52100.0,STARLINK-3702,PAYLOAD,2023-02-08 07:25:56,15.08825444,0.0001334,53.2143,101.1608,103.2072,256.9069,-6.5234e-05,-1.326e-05,0.0,0 STARLINK-3702,1 52100U 22029N   23039.30968058 -.00001326  00000-0 -65234-4 0  9997,2 52100  53.2143 101.1608 0001334 103.2072 256.9069 15.08825444 50767,6917.925,95.438,540.713,538.867,0.0
52100.0,STARLINK-3702,PAYLOAD,2023-02-08 10:36:42,15.08826926,0.0001236,53.2135,100.5651,107.915,252.1977,-0.0002239,-3.848e-05,0.0,0 STARLINK-3702,1 52100U 22029N   23039.44215459 -.00003848  00000-0 -22390-3 0  9998,2 52100  53.2135 100.5651 0001236 107.9150 252.1977 15.08826926 50782,6917.92,95.438,540.64,538.93,0.0
